[{"OBJECT_NAME":"STARLINK-34447","OBJECT_ID":"2025-142Q","EPOCH":"2026-03-09T22:00:01.999584","MEAN_MOTION":14.98332922,"ECCENTRICITY":0.00031575,"INCLINATION":70.0005,"RA_OF_ASC_NODE":313.8815,"ARG_OF_PERICENTER":279.4366,"MEAN_ANOMALY":91.7096,"EPHEMERIS_TYPE":0,"CLASSIFICATION_TYPE":"U","NORAD_CAT_ID":64710,"ELEMENT_SET_NO":999,"REV_AT_EPOCH":575,"BSTAR":-0.00065258092,"MEAN_MOTION_DOT":-7.871e-5,"MEAN_MOTION_DDOT":0},{"OBJECT_NAME":"CZ-6A DEB","OBJECT_ID":"2022-151ADY","EPOCH":"2026-03-09T03:31:51.275136","MEAN_MOTION":14.90358805,"ECCENTRICITY":0.00492463,"INCLINATION":98.6182,"RA_OF_ASC_NODE":136.027,"ARG_OF_PERICENTER":205.5066,"MEAN_ANOMALY":154.3719,"EPHEMERIS_TYPE":0,"CLASSIFICATION_TYPE":"U","NORAD_CAT_ID":56600,"ELEMENT_SET_NO":999,"REV_AT_EPOCH":16160,"BSTAR":0.0054644315,"MEAN_MOTION_DOT":0.00054726,"MEAN_MOTION_DDOT":0}]
